RESOURCESAT-2A          
1 41877U 16074A   22044.51175702  .00000026  00000+0  31745-4 0  9996
2 41877  98.7302 121.2027 0001342  23.7848 336.3417 14.21616654269151
CARTOSAT-2D             
1 41948U 17008A   22044.47099663  .00002802  00000+0  13596-3 0  9996
2 41948  97.4104 105.7911 0007960  45.9381 314.2563 15.19275084276976
SENTINEL-2B             
1 42063U 17013A   22044.52212603  .00000061  00000+0  40045-4 0  9993
2 42063  98.5640 121.0245 0001028 101.5113 258.6194 14.30819316258047
ZHUHAI-1 02 (CAS-4B)    
1 42759U 17034B   22044.59232747  .00003291  00000+0  20711-3 0  9991
2 42759  43.0186 294.8641 0008839 238.2524 194.7567 15.10895564257613
NUSAT-3 (MILANESAT)     
1 42760U 17034C   22044.41720904  .00003414  00000+0  21061-3 0  9997
2 42760  43.0167 291.4523 0008713 261.0453 268.0186 15.11549993257640
ZHUHAI-1 01 (CAS-4A)    
1 42761U 17034D   22044.56861559  .00002999  00000+0  18947-3 0  9992
2 42761  43.0184 293.8734 0009259 240.3121 188.5816 15.10978656257612
CARTOSAT-2E             
1 42767U 17036C   22044.64283403  .00002769  00000+0  13437-3 0  9999
2 42767  97.4733 106.6364 0009721  89.6443  30.9304 15.19289649257568
FORMOSAT-5              
1 42920U 17049A   22044.43824310  .00000097  00000+0  35829-4 0  9991
2 42920  98.2498 124.5097 0009449 272.8413  87.1715 14.50889781236887
SENTINEL-5P             
1 42969U 17064A   22044.41998349  .00000018  00000+0  29369-4 0  9998
2 42969  98.7204 345.9877 0000934  84.0772 276.0511 14.19548516224722
SKYSAT-C11              
1 42987U 17068A   22044.58397465  .00009926  00000+0  25484-3 0  9992
2 42987  97.2762 164.3274 0002828 175.2220 184.9053 15.39509067239347
SKYSAT-C10              
1 42988U 17068B   22044.56665638  .00011098  00000+0  26082-3 0  9999
2 42988  97.2806 164.4332 0003443  83.8435 276.3204 15.42164752239367
SKYSAT-C9               
1 42989U 17068C   22044.30005810  .00012089  00000+0  28239-3 0  9999
2 42989  97.2758 163.4094 0001230  75.6730 284.4654 15.42329731239513
SKYSAT-C8               
1 42990U 17068D   22044.28681312  .00012541  00000+0  29421-3 0  9992
2 42990  97.2815 164.5593 0002077  63.4480 296.6980 15.42191915239341
SKYSAT-C7               
1 42991U 17068E   22044.58840314  .00011262  00000+0  26313-3 0  9991
2 42991  97.2821 164.9271 0002117 115.6028 244.5438 15.42341751239399
SKYSAT-C6               
1 42992U 17068F   22044.58427584  .00011257  00000+0  26403-3 0  9996
2 42992  97.2842 165.2591 0000774 184.7956 175.3284 15.42226093239409
CARTOSAT-2F             
1 43111U 18004A   22044.47871457  .00002781  00000+0  13522-3 0  9991
2 43111  97.4675 106.4755 0005360  99.9644  25.4234 15.19240693226722
NUSAT-4 (ADA)           
1 43195U 18015D   22044.43358405  .00009532  00000+0  35351-3 0  9999
2 43195  97.5137 184.0776 0016810 123.0104 321.6371 15.27692299224289
NUSAT-5 (MARYAM)        
1 43204U 18015K   22044.45766586  .00009891  00000+0  36328-3 0  9998
2 43204  97.5145 184.5979 0016480 124.3714 321.4259 15.28005300223917
GAOFEN 1-02             
1 43259U 18031A   22044.50363827 -.00001500  00000+0 -20805-3 0  9997
2 43259  97.9118 123.7072 0005466  58.7435 301.4175 14.76520653208858
GAOFEN 1-03             
1 43260U 18031B   22044.54987521 -.00002376  00000+0 -33387-3 0  9997
2 43260  97.9104 123.7246 0006871 112.2467 247.9532 14.76509657208852
GAOFEN 1-04             
1 43262U 18031D   22044.52511853 -.00000544  00000+0 -70921-4 0  9999
2 43262  97.9121 123.7267 0006313  73.0900 287.0716 14.76525590208845
SENTINEL-3B             
1 43437U 18039A   22044.46436601  .00000063  00000+0  44165-4 0  9996
2 43437  98.6304 113.5006 0000800 117.8266 242.2996 14.26734050198158
GAOFEN 5                
1 43461U 18043A   22044.54373793  .00000222  00000+0  58412-4 0  9996
2 43461  98.2587 345.8736 0001452   0.6075 359.5126 14.57890903200600
GAOFEN 6                
1 43484U 18048A   22044.55682956  .00000437  00000+0  70016-4 0  9993
2 43484  97.9385 127.0456 0008351 242.7621 117.2746 14.76491394199557
GAOFEN 11-1             
1 43585U 18063A   22044.55994051  .00004295  00000+0  18176-3 0  9998
2 43585  97.3319 123.6122 0011383 243.0256 228.5103 15.23661811197523
AEOLUS                  
1 43600U 18066A   22044.51613245  .00087777  00000+0  34208-3 0  9998
2 43600  96.7123  52.5042 0009182 103.9146 256.3149 15.86787425201472
ICESAT-2                
1 43613U 18070A   22044.50072809  .00002233  00000+0  80942-4 0  9992
2 43613  92.0011 224.7504 0004179  97.5794 262.5930 15.28280575190446
HYSIS                   
1 43719U 18096A   22044.46406577  .00000659  00000+0  97073-4 0  9998
2 43719  97.9740 111.8128 0001171 201.1299 158.9991 14.78646165173223
KAZSTSAT                
1 43783U 18099AB  22044.45344022  .00000729  00000+0  73993-4 0  9990
2 43783  97.6470 113.2603 0007300 333.1303  26.9538 14.93799130174294
SAUDISAT 5A             
1 43831U 18102A   22044.49809028  .00002175  00000+0  14262-3 0  9995
2 43831  97.5118 120.4498 0012758 240.6776 314.2190 15.08671390175480
SAUDISAT 5B             
1 43833U 18102C   22044.47804315  .00001906  00000+0  12396-3 0  9996
2 43833  97.5129 121.2542 0013509 247.8631 233.5051 15.09109528175521
GAOFEN 10R              
1 44622U 19066A   22044.56935900  .00000752  00000+0  10442-3 0  9996
2 44622  97.8820 345.8826 0001996  81.0397 279.1036 14.80723662127673
CARTOSAT-3              
1 44804U 19081A   22044.63001839  .00002351  00000+0  11470-3 0  9997
2 44804  97.4152 108.6255 0011772 293.9591 221.3823 15.19234978122839
GAOFEN 12-1             
1 44819U 19082A   22044.49570561  .00000121  00000+0  22574-4 0  9992
2 44819  97.8721  67.3493 0001711 104.8831 255.3057 14.80281718119603
CSG-1                   
1 44873U 19092A   22044.57904770 -.00000938  00000+0 -11130-3 0  9998
2 44873  97.8833 230.0283 0001543  84.7254 275.4144 14.82147256116754
NUSAT-7 (SOPHIE)        
1 45017U 20003B   22044.46422590  .00009101  00000+0  29357-3 0  9995
2 45017  97.2346 109.0970 0014345  83.1216  42.3156 15.32271206116226
NUSAT-8 (MARIE)         
1 45018U 20003C   22044.47399927  .00010772  00000+0  32503-3 0  9997
2 45018  97.2473 110.1103 0013106  85.6051  39.2672 15.34368964116236
NUSAT-6 (HYPATIA)       
1 46272U 20061A   22044.53855278  .00005671  00000+0  24194-3 0  9996
2 46272  97.3425 118.2000 0007697 138.1043 222.0788 15.23281454 80354
NEMO-HD                 
1 46277U 20061F   22044.47309466  .00002050  00000+0  10754-3 0  9992
2 46277  97.4067 118.0540 0000475 144.9010 336.0207 15.16844319 80062
NUSAT-12 (DOROTHY)      
1 46827U 20079A   22044.48999808  .00010987  00000+0  33490-3 0  9998
2 46827  97.2143 117.2559 0009723  35.2640  89.8738 15.34079618 71089
NUSAT-9 (ALICE)         
1 46828U 20079B   22044.45878350  .00011149  00000+0  33462-3 0  9994
2 46828  97.2004 117.0150 0004761  72.5594  57.7583 15.34600439 71117
NUSAT-11 (CORA)         
1 46829U 20079C   22044.46737072  .00011099  00000+0  33355-3 0  9996
2 46829  97.2073 117.2088 0008383  51.5862  75.2739 15.34539165 71109
NUSAT-15 (KATHERINE)    
1 46830U 20079D   22044.51510111  .00010941  00000+0  32958-3 0  9990
2 46830  97.2215 118.1747 0004789  34.8124  90.1068 15.34490787 71121
NUSAT-14 (HEDY)         
1 46831U 20079E   22044.61467036  .00011696  00000+0  34523-3 0  9997
2 46831  97.2182 118.0085 0009131  35.0985 102.4981 15.35086802 71135
NUSAT-10 (CAROLINE)     
1 46832U 20079F   22044.46976424  .00010410  00000+0  31299-3 0  9997
2 46832  97.2181 117.7643 0009639  47.5896  79.1858 15.34529472 71107
NUSAT-13 (EMMY)         
1 46833U 20079G   22044.51658336  .00010261  00000+0  30953-3 0  9993
2 46833  97.2176 117.8438 0009253  49.1222  75.5314 15.34433677 71117
NUSAT-17 (MARY)         
1 46835U 20079J   22044.46087845  .00010370  00000+0  31563-3 0  9999
2 46835  97.2174 117.6136 0009865  59.3783  64.0227 15.34139003 71093
NUSAT-18 (VERA)         
1 46836U 20079K   22044.47862699  .00010718  00000+0  32233-3 0  9990
2 46836  97.2185 117.9252 0010655  63.3553  64.8283 15.34504605 71114
NUSAT-16 (LISE)         
1 46840U 20079P   22044.56733807  .00010452  00000+0  31496-3 0  9998
2 46840  97.2227 118.0310 0008057  66.7071  40.7551 15.34471992 71122
SENTINEL-6              
1 46984U 20086A   22044.45634010 -.00000061  00000+0  00000+0 0  9998
2 46984  66.0418 186.5703 0007675 265.0827  94.9314 12.80931085 57484
GAOFEN 12-2             
1 48079U 21026A   22044.52913397  .00000258  00000+0  40548-4 0  9999
2 48079  97.8854  37.2979 0001595  48.2976 311.8381 14.80336316 47296
NUSAT-19 (ROSALIND)     
1 48905U 21059AC  22044.52372780  .00005142  00000+0  25784-3 0  9999
2 48905  97.4883 175.3066 0011249 139.0841 290.6289 15.17727468 35268
NUSAT-22 (SOFYA)        
1 48919U 21059AS  22044.48572962  .00012320  00000+0  38150-3 0  9990
2 48919  97.3454 176.1529 0015615 121.3996 303.5024 15.33479529 35503
NUSAT-21 (ELISA)        
1 48920U 21059AT  22044.59584580  .00012967  00000+0  39210-3 0  9998
2 48920  97.3345 176.0383 0015421 130.2205 285.8324 15.34225520 35526
NUSAT-20 (GRACE)        
1 48921U 21059AU  22044.63574167  .00013269  00000+0  39961-3 0  9993
2 48921  97.3441 176.3206 0014474 147.6234 269.9816 15.34363645 35522
LANDSAT 9               
1 49260U 21088A   22044.44174858  .00000237  00000+0  62569-4 0  9996
2 49260  98.2016 116.5831 0001145  64.1733 295.9584 14.57120584 20224
CSG-2                   
1 51444U 22008A   22044.63062599  .00099781  00000+0  12054-1 0  9998
2 51444  97.8839 230.1054 0001643 187.9734 172.1121 14.83195891  1872
